[{"OBJECT_NAME":"STARLINK-5991","OBJECT_ID":"2023-058Q","EPOCH":"2025-12-03T06:34:05.215872","MEAN_MOTION":15.01259734,"ECCENTRICITY":0.00029799,"INCLINATION":97.6033,"RA_OF_ASC_NODE":335.8015,"ARG_OF_PERICENTER":57.8731,"MEAN_ANOMALY":302.2783,"EPHEMERIS_TYPE":0,"CLASSIFICATION_TYPE":"U","NORAD_CAT_ID":56331,"ELEMENT_SET_NO":999,"REV_AT_EPOCH":14366,"BSTAR":3.2972925e-5,"MEAN_MOTION_DOT":3.65e-6,"MEAN_MOTION_DDOT":0},{"OBJECT_NAME":"STARLINK-5093","OBJECT_ID":"2023-058R","EPOCH":"2025-12-03T00:26:10.438368","MEAN_MOTION":15.01258579,"ECCENTRICITY":0.00019793,"INCLINATION":97.604,"RA_OF_ASC_NODE":335.5253,"ARG_OF_PERICENTER":86.5105,"MEAN_ANOMALY":273.6346,"EPHEMERIS_TYPE":0,"CLASSIFICATION_TYPE":"U","NORAD_CAT_ID":56332,"ELEMENT_SET_NO":999,"REV_AT_EPOCH":14362,"BSTAR":6.3771026e-5,"MEAN_MOTION_DOT":7.61e-6,"MEAN_MOTION_DDOT":0},{"OBJECT_NAME":"STARLINK-5553","OBJECT_ID":"2023-058S","EPOCH":"2025-12-03T06:07:09.932448","MEAN_MOTION":15.05665211,"ECCENTRICITY":0.00020553,"INCLINATION":97.6006,"RA_OF_ASC_NODE":336.121,"ARG_OF_PERICENTER":100.7833,"MEAN_ANOMALY":259.3625,"EPHEMERIS_TYPE":0,"CLASSIFICATION_TYPE":"U","NORAD_CAT_ID":56333,"ELEMENT_SET_NO":999,"REV_AT_EPOCH":14368,"BSTAR":0.00019749846,"MEAN_MOTION_DOT":2.791e-5,"MEAN_MOTION_DDOT":0},{"OBJECT_NAME":"STARLINK-5548","OBJECT_ID":"2023-058T","EPOCH":"2025-12-03T06:27:09.067680","MEAN_MOTION":15.05652981,"ECCENTRICITY":0.0001494,"INCLINATION":97.6041,"RA_OF_ASC_NODE":336.2571,"ARG_OF_PERICENTER":73.1334,"MEAN_ANOMALY":287.0056,"EPHEMERIS_TYPE":0,"CLASSIFICATION_TYPE":"U","NORAD_CAT_ID":56334,"ELEMENT_SET_NO":999,"REV_AT_EPOCH":14369,"BSTAR":0.00051562751,"MEAN_MOTION_DOT":7.388e-5,"MEAN_MOTION_DDOT":0},{"OBJECT_NAME":"STARLINK-5559","OBJECT_ID":"2023-058U","EPOCH":"2025-12-03T00:24:16.072416","MEAN_MOTION":15.05656838,"ECCENTRICITY":0.00028903,"INCLINATION":97.5975,"RA_OF_ASC_NODE":335.9748,"ARG_OF_PERICENTER":84.3595,"MEAN_ANOMALY":275.7961,"EPHEMERIS_TYPE":0,"CLASSIFICATION_TYPE":"U","NORAD_CAT_ID":56335,"ELEMENT_SET_NO":999,"REV_AT_EPOCH":14365,"BSTAR":0.00022302654,"MEAN_MOTION_DOT":3.16e-5,"MEAN_MOTION_DDOT":0},{"OBJECT_NAME":"STARLINK-5562","OBJECT_ID":"2023-058V","EPOCH":"2025-12-03T06:39:25.946496","MEAN_MOTION":15.01268049,"ECCENTRICITY":0.0002278,"INCLINATION":97.6038,"RA_OF_ASC_NODE":335.7972,"ARG_OF_PERICENTER":74.4126,"MEAN_ANOMALY":285.735,"EPHEMERIS_TYPE":0,"CLASSIFICATION_TYPE":"U","NORAD_CAT_ID":56336,"ELEMENT_SET_NO":999,"REV_AT_EPOCH":14366,"BSTAR":0.0001295003,"MEAN_MOTION_DOT":1.606e-5,"MEAN_MOTION_DDOT":0},{"OBJECT_NAME":"STARLINK-5561","OBJECT_ID":"2023-058W","EPOCH":"2025-12-03T06:26:26.299680","MEAN_MOTION":15.01261278,"ECCENTRICITY":0.00032193,"INCLINATION":97.6027,"RA_OF_ASC_NODE":335.8081,"ARG_OF_PERICENTER":42.2572,"MEAN_ANOMALY":317.89,"EPHEMERIS_TYPE":0,"CLASSIFICATION_TYPE":"U","NORAD_CAT_ID":56337,"ELEMENT_SET_NO":999,"REV_AT_EPOCH":14366,"BSTAR":4.4284172e-5,"MEAN_MOTION_DOT":5.1e-6,"MEAN_MOTION_DDOT":0},{"OBJECT_NAME":"STARLINK-5554","OBJECT_ID":"2023-058X","EPOCH":"2025-12-03T06:28:45.395040","MEAN_MOTION":15.01259561,"ECCENTRICITY":0.00039438,"INCLINATION":97.6034,"RA_OF_ASC_NODE":335.8061,"ARG_OF_PERICENTER":44.1888,"MEAN_ANOMALY":315.9651,"EPHEMERIS_TYPE":0,"CLASSIFICATION_TYPE":"U","NORAD_CAT_ID":56338,"ELEMENT_SET_NO":999,"REV_AT_EPOCH":14366,"BSTAR":3.08341e-5,"MEAN_MOTION_DOT":3.38e-6,"MEAN_MOTION_DDOT":0},{"OBJECT_NAME":"STARLINK-5552","OBJECT_ID":"2023-058Y","EPOCH":"2025-12-02T22:18:09.830880","MEAN_MOTION":15.0127787,"ECCENTRICITY":0.0002383,"INCLINATION":97.6013,"RA_OF_ASC_NODE":335.4826,"ARG_OF_PERICENTER":48.9046,"MEAN_ANOMALY":311.2384,"EPHEMERIS_TYPE":0,"CLASSIFICATION_TYPE":"U","NORAD_CAT_ID":56339,"ELEMENT_SET_NO":999,"REV_AT_EPOCH":14361,"BSTAR":0.00020151692,"MEAN_MOTION_DOT":2.532e-5,"MEAN_MOTION_DDOT":0},{"OBJECT_NAME":"STARLINK-5540","OBJECT_ID":"2023-058Z","EPOCH":"2025-12-03T05:59:13.734528","MEAN_MOTION":15.05647815,"ECCENTRICITY":0.00021825,"INCLINATION":97.602,"RA_OF_ASC_NODE":336.1321,"ARG_OF_PERICENTER":85.1388,"MEAN_ANOMALY":275.0088,"EPHEMERIS_TYPE":0,"CLASSIFICATION_TYPE":"U","NORAD_CAT_ID":56340,"ELEMENT_SET_NO":999,"REV_AT_EPOCH":14368,"BSTAR":4.6454937e-5,"MEAN_MOTION_DOT":6.1e-6,"MEAN_MOTION_DDOT":0},{"OBJECT_NAME":"STARLINK-5543","OBJECT_ID":"2023-058AA","EPOCH":"2025-12-03T06:23:25.088640","MEAN_MOTION":15.01260182,"ECCENTRICITY":0.00026742,"INCLINATION":97.602,"RA_OF_ASC_NODE":335.8084,"ARG_OF_PERICENTER":31.4549,"MEAN_ANOMALY":328.6835,"EPHEMERIS_TYPE":0,"CLASSIFICATION_TYPE":"U","NORAD_CAT_ID":56341,"ELEMENT_SET_NO":999,"REV_AT_EPOCH":14365,"BSTAR":2.9689557e-5,"MEAN_MOTION_DOT":3.23e-6,"MEAN_MOTION_DDOT":0},{"OBJECT_NAME":"STARLINK-5955","OBJECT_ID":"2023-058AB","EPOCH":"2025-12-02T23:00:32.172480","MEAN_MOTION":15.05652005,"ECCENTRICITY":0.00017482,"INCLINATION":97.6032,"RA_OF_ASC_NODE":335.8994,"ARG_OF_PERICENTER":87.1334,"MEAN_ANOMALY":273.0093,"EPHEMERIS_TYPE":0,"CLASSIFICATION_TYPE":"U","NORAD_CAT_ID":56342,"ELEMENT_SET_NO":999,"REV_AT_EPOCH":14364,"BSTAR":-0.00019942604,"MEAN_MOTION_DOT":-2.937e-5,"MEAN_MOTION_DDOT":0},{"OBJECT_NAME":"STARLINK-5976","OBJECT_ID":"2023-058AC","EPOCH":"2025-12-03T06:03:12.842208","MEAN_MOTION":15.05647793,"ECCENTRICITY":0.00020605,"INCLINATION":97.602,"RA_OF_ASC_NODE":336.1296,"ARG_OF_PERICENTER":87.2108,"MEAN_ANOMALY":272.9355,"EPHEMERIS_TYPE":0,"CLASSIFICATION_TYPE":"U","NORAD_CAT_ID":56343,"ELEMENT_SET_NO":999,"REV_AT_EPOCH":14368,"BSTAR":2.6991785e-5,"MEAN_MOTION_DOT":3.29e-6,"MEAN_MOTION_DDOT":0},{"OBJECT_NAME":"STARLINK-5974","OBJECT_ID":"2023-058AD","EPOCH":"2025-12-03T06:43:05.817216","MEAN_MOTION":15.0564827,"ECCENTRICITY":0.00018965,"INCLINATION":97.6024,"RA_OF_ASC_NODE":336.2425,"ARG_OF_PERICENTER":88.3329,"MEAN_ANOMALY":271.8115,"EPHEMERIS_TYPE":0,"CLASSIFICATION_TYPE":"U","NORAD_CAT_ID":56344,"ELEMENT_SET_NO":999,"REV_AT_EPOCH":14369,"BSTAR":3.429317e-5,"MEAN_MOTION_DOT":4.34e-6,"MEAN_MOTION_DDOT":0},{"OBJECT_NAME":"STARLINK-5979","OBJECT_ID":"2023-058AE","EPOCH":"2025-12-03T06:07:26.287968","MEAN_MOTION":15.01263105,"ECCENTRICITY":0.00027772,"INCLINATION":97.6023,"RA_OF_ASC_NODE":335.8154,"ARG_OF_PERICENTER":98.0994,"MEAN_ANOMALY":262.0546,"EPHEMERIS_TYPE":0,"CLASSIFICATION_TYPE":"U","NORAD_CAT_ID":56345,"ELEMENT_SET_NO":999,"REV_AT_EPOCH":14366,"BSTAR":-0.00011784996,"MEAN_MOTION_DOT":-1.572e-5,"MEAN_MOTION_DDOT":0},{"OBJECT_NAME":"STARLINK-5837","OBJECT_ID":"2023-058AF","EPOCH":"2025-12-03T06:12:46.025856","MEAN_MOTION":15.01271425,"ECCENTRICITY":0.00025293,"INCLINATION":97.6018,"RA_OF_ASC_NODE":335.8123,"ARG_OF_PERICENTER":95.3343,"MEAN_ANOMALY":264.817,"EPHEMERIS_TYPE":0,"CLASSIFICATION_TYPE":"U","NORAD_CAT_ID":56346,"ELEMENT_SET_NO":999,"REV_AT_EPOCH":14366,"BSTAR":0.00010270086,"MEAN_MOTION_DOT":1.261e-5,"MEAN_MOTION_DDOT":0},{"OBJECT_NAME":"STARLINK-5829","OBJECT_ID":"2023-058AG","EPOCH":"2025-12-02T23:08:31.447968","MEAN_MOTION":15.05654461,"ECCENTRICITY":0.00013828,"INCLINATION":97.6031,"RA_OF_ASC_NODE":335.8938,"ARG_OF_PERICENTER":88.8005,"MEAN_ANOMALY":271.3381,"EPHEMERIS_TYPE":0,"CLASSIFICATION_TYPE":"U","NORAD_CAT_ID":56347,"ELEMENT_SET_NO":999,"REV_AT_EPOCH":14364,"BSTAR":-3.926343e-5,"MEAN_MOTION_DOT":-6.27e-6,"MEAN_MOTION_DDOT":0},{"OBJECT_NAME":"STARLINK-5888","OBJECT_ID":"2023-058AH","EPOCH":"2025-12-02T22:15:52.412544","MEAN_MOTION":15.01260568,"ECCENTRICITY":0.00026591,"INCLINATION":97.6014,"RA_OF_ASC_NODE":335.4841,"ARG_OF_PERICENTER":35.3401,"MEAN_ANOMALY":324.8,"EPHEMERIS_TYPE":0,"CLASSIFICATION_TYPE":"U","NORAD_CAT_ID":56348,"ELEMENT_SET_NO":999,"REV_AT_EPOCH":14361,"BSTAR":1.9826346e-5,"MEAN_MOTION_DOT":1.96e-6,"MEAN_MOTION_DDOT":0},{"OBJECT_NAME":"STARLINK-5887","OBJECT_ID":"2023-058AJ","EPOCH":"2025-12-03T05:56:44.875968","MEAN_MOTION":15.01259207,"ECCENTRICITY":7.41e-5,"INCLINATION":97.6025,"RA_OF_ASC_NODE":335.8244,"ARG_OF_PERICENTER":108.736,"MEAN_ANOMALY":251.3945,"EPHEMERIS_TYPE":0,"CLASSIFICATION_TYPE":"U","NORAD_CAT_ID":56349,"ELEMENT_SET_NO":999,"REV_AT_EPOCH":14366,"BSTAR":7.2623999e-5,"MEAN_MOTION_DOT":8.75e-6,"MEAN_MOTION_DDOT":0},{"OBJECT_NAME":"STARLINK-5886","OBJECT_ID":"2023-058AK","EPOCH":"2025-12-02T22:56:35.423520","MEAN_MOTION":15.05632124,"ECCENTRICITY":0.00025923,"INCLINATION":97.6027,"RA_OF_ASC_NODE":335.9056,"ARG_OF_PERICENTER":84.7982,"MEAN_ANOMALY":275.354,"EPHEMERIS_TYPE":0,"CLASSIFICATION_TYPE":"U","NORAD_CAT_ID":56350,"ELEMENT_SET_NO":999,"REV_AT_EPOCH":14364,"BSTAR":-3.8412716e-5,"MEAN_MOTION_DOT":-6.15e-6,"MEAN_MOTION_DDOT":0},{"OBJECT_NAME":"STARLINK-5891","OBJECT_ID":"2023-058AL","EPOCH":"2025-12-03T05:55:14.276064","MEAN_MOTION":15.05648259,"ECCENTRICITY":0.00017787,"INCLINATION":97.6018,"RA_OF_ASC_NODE":336.1378,"ARG_OF_PERICENTER":83.4446,"MEAN_ANOMALY":276.6983,"EPHEMERIS_TYPE":0,"CLASSIFICATION_TYPE":"U","NORAD_CAT_ID":56351,"ELEMENT_SET_NO":999,"REV_AT_EPOCH":14368,"BSTAR":-1.0073666e-5,"MEAN_MOTION_DOT":-2.06e-6,"MEAN_MOTION_DDOT":0},{"OBJECT_NAME":"STARLINK-5885","OBJECT_ID":"2023-058AM","EPOCH":"2025-12-02T22:02:11.065632","MEAN_MOTION":15.01268122,"ECCENTRICITY":0.00016805,"INCLINATION":97.6026,"RA_OF_ASC_NODE":335.4936,"ARG_OF_PERICENTER":89.7006,"MEAN_ANOMALY":270.4411,"EPHEMERIS_TYPE":0,"CLASSIFICATION_TYPE":"U","NORAD_CAT_ID":56352,"ELEMENT_SET_NO":999,"REV_AT_EPOCH":14361,"BSTAR":-0.00024251235,"MEAN_MOTION_DOT":-3.172e-5,"MEAN_MOTION_DDOT":0},{"OBJECT_NAME":"STARLINK-5874","OBJECT_ID":"2023-058AN","EPOCH":"2025-12-02T23:11:30.188832","MEAN_MOTION":15.01259661,"ECCENTRICITY":0.00017716,"INCLINATION":97.6039,"RA_OF_ASC_NODE":335.5817,"ARG_OF_PERICENTER":135.4218,"MEAN_ANOMALY":224.7149,"EPHEMERIS_TYPE":0,"CLASSIFICATION_TYPE":"U","NORAD_CAT_ID":56353,"ELEMENT_SET_NO":999,"REV_AT_EPOCH":14362,"BSTAR":5.355545e-6,"MEAN_MOTION_DOT":1.0e-7,"MEAN_MOTION_DDOT":0}]
